[{"OBJECT_NAME":"STARLINK-6086","OBJECT_ID":"2023-065AU","EPOCH":"2026-03-09T22:00:01.999584","MEAN_MOTION":15.14957238,"ECCENTRICITY":0.00012443,"INCLINATION":43.0008,"RA_OF_ASC_NODE":221.4166,"ARG_OF_PERICENTER":294.4132,"MEAN_ANOMALY":193.3936,"EPHEMERIS_TYPE":0,"CLASSIFICATION_TYPE":"U","NORAD_CAT_ID":56545,"ELEMENT_SET_NO":999,"REV_AT_EPOCH":577,"BSTAR":0.0067499793,"MEAN_MOTION_DOT":0.00130285,"MEAN_MOTION_DDOT":0},{"OBJECT_NAME":"CZ-4 DEB","OBJECT_ID":"1990-081Z","EPOCH":"2026-03-09T18:07:39.944352","MEAN_MOTION":15.17725505,"ECCENTRICITY":0.00034514,"INCLINATION":98.0344,"RA_OF_ASC_NODE":132.584,"ARG_OF_PERICENTER":292.5158,"MEAN_ANOMALY":67.5708,"EPHEMERIS_TYPE":0,"CLASSIFICATION_TYPE":"U","NORAD_CAT_ID":20861,"ELEMENT_SET_NO":999,"REV_AT_EPOCH":85925,"BSTAR":0.0035527985,"MEAN_MOTION_DOT":0.00072268,"MEAN_MOTION_DDOT":0}]
